{
  "norad_id": 67873,
  "name": "STARLINK-36783",
  "history": [
    {
      "epoch": "2026-03-28T22:00:01.999584Z",
      "apogee_km": 406.1644628744489,
      "perigee_km": 404.6495618256122,
      "latitude_deg": -34.9029466145761,
      "longitude_deg": -72.22595650662386,
      "height_km": 416.91392880527843,
      "semi_major_axis_km": 6783.54401235003,
      "eccentricity": 0.00011166,
      "inclination_deg": 53.1597,
      "raan_deg": 115.4308,
      "arg_perigee_deg": 78.7297,
      "mean_anomaly_deg": 235.9494,
      "mean_motion_rev_day": 15.53881125
    },
    {
      "epoch": "2026-03-29T04:00:01.999584Z",
      "apogee_km": 409.1892938473311,
      "perigee_km": 407.49538860376106,
      "latitude_deg": -53.17102859690286,
      "longitude_deg": 143.4599953215131,
      "height_km": 427.6627548047622,
      "semi_major_axis_km": 6786.479341225546,
      "eccentricity": 0.0001248,
      "inclination_deg": 53.1596,
      "raan_deg": 114.2286,
      "arg_perigee_deg": 87.2365,
      "mean_anomaly_deg": 186.2685,
      "mean_motion_rev_day": 15.52873093
    },
    {
      "epoch": "2026-03-30T04:00:01.999584Z",
      "apogee_km": 418.9195528313476,
      "perigee_km": 417.1674974919615,
      "latitude_deg": 52.2784197669904,
      "longitude_deg": -32.39130516150757,
      "height_km": 423.6828469565262,
      "semi_major_axis_km": 6796.180525161654,
      "eccentricity": 0.0001289,
      "inclination_deg": 53.1798,
      "raan_deg": 109.4371,
      "arg_perigee_deg": 61.9264,
      "mean_anomaly_deg": 37.6422,
      "mean_motion_rev_day": 15.49549315
    },
    {
      "epoch": "2026-03-30T06:00:02.000160Z",
      "apogee_km": 419.89277046708867,
      "perigee_km": 418.17553314729594,
      "latitude_deg": -19.677752928848914,
      "longitude_deg": 26.838950870355642,
      "height_km": 425.1471801050652,
      "semi_major_axis_km": 6797.1711518071925,
      "eccentricity": 0.00012632,
      "inclination_deg": 53.1589,
      "raan_deg": 109.0393,
      "arg_perigee_deg": 64.7808,
      "mean_anomaly_deg": 139.8559,
      "mean_motion_rev_day": 15.49210578
    },
    {
      "epoch": "2026-03-30T14:00:03.000384Z",
      "apogee_km": 424.00145276459716,
      "perigee_km": 422.4515580489842,
      "latitude_deg": -52.890207536243295,
      "longitude_deg": -30.544019925861424,
      "height_km": 442.35592144656795,
      "semi_major_axis_km": 6801.36350540679,
      "eccentricity": 0.00011394,
      "inclination_deg": 53.1589,
      "raan_deg": 107.4472,
      "arg_perigee_deg": 71.3194,
      "mean_anomaly_deg": 192.6305,
      "mean_motion_rev_day": 15.47778401
    },
    {
      "epoch": "2026-03-30T22:00:00.999936Z",
      "apogee_km": 428.0997007165997,
      "perigee_km": 426.6968076792991,
      "latitude_deg": -30.176654434768995,
      "longitude_deg": -78.12146705624285,
      "height_km": 437.17577793529114,
      "semi_major_axis_km": 6805.535254197949,
      "eccentricity": 0.00010307,
      "inclination_deg": 53.1587,
      "raan_deg": 105.8568,
      "arg_perigee_deg": 105.2451,
      "mean_anomaly_deg": 216.1397,
      "mean_motion_rev_day": 15.46355452
    },
    {
      "epoch": "2026-03-31T20:00:01.999008Z",
      "apogee_km": 439.5567755286165,
      "perigee_km": 437.86074430354984,
      "latitude_deg": 16.719654124943336,
      "longitude_deg": -14.77533264769112,
      "height_km": 438.4904176333293,
      "semi_major_axis_km": 6816.845759916083,
      "eccentricity": 0.0001244,
      "inclination_deg": 53.1592,
      "raan_deg": 101.5056,
      "arg_perigee_deg": 76.8293,
      "mean_anomaly_deg": 304.2202,
      "mean_motion_rev_day": 15.42508481
    },
    {
      "epoch": "2026-04-01T20:00:01.999008Z",
      "apogee_km": 452.0608189392624,
      "perigee_km": 450.1581908629969,
      "latitude_deg": 8.153712607832846,
      "longitude_deg": 140.4618525816119,
      "height_km": 451.48802707602675,
      "semi_major_axis_km": 6829.246504901129,
      "eccentricity": 0.0001393,
      "inclination_deg": 53.1598,
      "raan_deg": 96.7887,
      "arg_perigee_deg": 69.6366,
      "mean_anomaly_deg": 100.1032,
      "mean_motion_rev_day": 15.38308991
    },
    {
      "epoch": "2026-04-02T20:00:01.999008Z",
      "apogee_km": 463.63575726835006,
      "perigee_km": 462.554842564964,
      "latitude_deg": -42.206758374943426,
      "longitude_deg": -81.5952996174384,
      "height_km": 477.5964322948968,
      "semi_major_axis_km": 6841.232299916657,
      "eccentricity": 7.9e-05,
      "inclination_deg": 53.1595,
      "raan_deg": 92.1008,
      "arg_perigee_deg": 84.6604,
      "mean_anomaly_deg": 218.6037,
      "mean_motion_rev_day": 15.34268101
    },
    {
      "epoch": "2026-04-02T22:00:01.999584Z",
      "apogee_km": 465.4844446007346,
      "perigee_km": 464.0223926338922,
      "latitude_deg": 33.70504034179897,
      "longitude_deg": -39.75586584690129,
      "height_km": 466.8981476947706,
      "semi_major_axis_km": 6842.890418617313,
      "eccentricity": 0.00010683,
      "inclination_deg": 53.1592,
      "raan_deg": 91.7101,
      "arg_perigee_deg": 118.4809,
      "mean_anomaly_deg": 285.2732,
      "mean_motion_rev_day": 15.33710476
    },
    {
      "epoch": "2026-04-03T20:00:01.999008Z",
      "apogee_km": 473.83690194413884,
      "perigee_km": 471.9679383903176,
      "latitude_deg": 45.22643361359406,
      "longitude_deg": 3.946349147416012,
      "height_km": 476.8278587640579,
      "semi_major_axis_km": 6851.039420167228,
      "eccentricity": 0.0001364,
      "inclination_deg": 53.159,
      "raan_deg": 87.4412,
      "arg_perigee_deg": 92.2467,
      "mean_anomaly_deg": 329.9948,
      "mean_motion_rev_day": 15.30974871
    },
    {
      "epoch": "2026-04-04T20:00:01.999008Z",
      "apogee_km": 473.89184535771074,
      "perigee_km": 471.7653056430745,
      "latitude_deg": 2.3137681059668918,
      "longitude_deg": 127.90960015009915,
      "height_km": 473.33335425900515,
      "semi_major_axis_km": 6850.965575500392,
      "eccentricity": 0.0001552,
      "inclination_deg": 53.1587,
      "raan_deg": 82.7907,
      "arg_perigee_deg": 93.7394,
      "mean_anomaly_deg": 83.2691,
      "mean_motion_rev_day": 15.30999624
    },
    {
      "epoch": "2026-04-05T14:00:03.000384Z",
      "apogee_km": 473.75172352230675,
      "perigee_km": 471.67262781447516,
      "latitude_deg": -5.602736425188864,
      "longitude_deg": 31.212735303835736,
      "height_km": 474.60792276582174,
      "semi_major_axis_km": 6850.849175668391,
      "eccentricity": 0.00015174,
      "inclination_deg": 53.1586,
      "raan_deg": 79.3037,
      "arg_perigee_deg": 88.5614,
      "mean_anomaly_deg": 264.5909,
      "mean_motion_rev_day": 15.31038643
    },
    {
      "epoch": "2026-04-05T20:00:03.000384Z",
      "apogee_km": 473.86671573368585,
      "perigee_km": 471.75662354343694,
      "latitude_deg": -48.144264993896826,
      "longitude_deg": -112.27998749124569,
      "height_km": 490.33263996081376,
      "semi_major_axis_km": 6850.948669638561,
      "eccentricity": 0.000154,
      "inclination_deg": 53.1587,
      "raan_deg": 78.14,
      "arg_perigee_deg": 95.672,
      "mean_anomaly_deg": 196.197,
      "mean_motion_rev_day": 15.31005291
    },
    {
      "epoch": "2026-04-06T06:00:02.000160Z",
      "apogee_km": 473.9879291964171,
      "perigee_km": 471.606407460823,
      "latitude_deg": 48.770864883041654,
      "longitude_deg": -150.11301873169984,
      "height_km": 477.1917635390909,
      "semi_major_axis_km": 6850.93416832862,
      "eccentricity": 0.00017381,
      "inclination_deg": 53.1589,
      "raan_deg": 76.2041,
      "arg_perigee_deg": 85.6353,
      "mean_anomaly_deg": 344.026,
      "mean_motion_rev_day": 15.31010152
    },
    {
      "epoch": "2026-04-07T05:11:54.361824Z",
      "apogee_km": 473.6496461530187,
      "perigee_km": 471.7896385746162,
      "latitude_deg": -3.222689235203461e-05,
      "longitude_deg": 158.2337896313692,
      "height_km": 473.4624298257914,
      "semi_major_axis_km": 6850.856642363817,
      "eccentricity": 0.00013575,
      "inclination_deg": 53.1589,
      "raan_deg": 71.707,
      "arg_perigee_deg": 80.3804,
      "mean_anomaly_deg": 279.735,
      "mean_motion_rev_day": 15.3103614
    }
  ]
}